STARLINK-31820          
1 59725U 24088T   26068.45865526  .00000496  00000+0  28884-4 0  9995
2 59725  53.1609 141.2066 0001205  67.9600 292.1529 15.30186376103644
KUIPER-00222            
1 67782U 26030U   26068.67636257  .00055223  00000+0  17317-2 0  9992
2 67782  51.8817 219.7147 0012800  40.1845 320.0084 15.32445377  5087
